{
  "norad_id": 47351,
  "name": "STARLINK-2017",
  "history": [
    {
      "epoch": "2026-03-28T21:44:15.812448Z",
      "apogee_km": 475.8881997670851,
      "perigee_km": 474.3776020155301,
      "latitude_deg": 4.385614343791556e-06,
      "longitude_deg": 132.02504546772326,
      "height_km": 476.12868067682683,
      "semi_major_axis_km": 6853.269900891307,
      "eccentricity": 0.00011021,
      "inclination_deg": 53.1569,
      "raan_deg": 284.4104,
      "arg_perigee_deg": 97.439,
      "mean_anomaly_deg": 262.6736,
      "mean_motion_rev_day": 15.3022752
    },
    {
      "epoch": "2026-03-29T00:52:21.878112Z",
      "apogee_km": 475.86096688480575,
      "perigee_km": 474.3642171739066,
      "latitude_deg": 3.3167130163757495e-05,
      "longitude_deg": 84.26414267113556,
      "height_km": 476.1168664364511,
      "semi_major_axis_km": 6853.249592029356,
      "eccentricity": 0.0001092,
      "inclination_deg": 53.1569,
      "raan_deg": 283.8035,
      "arg_perigee_deg": 98.1636,
      "mean_anomaly_deg": 261.9489,
      "mean_motion_rev_day": 15.30234322
    },
    {
      "epoch": "2026-03-30T03:31:17.033952Z",
      "apogee_km": 476.00060366137495,
      "perigee_km": 474.46270773503693,
      "latitude_deg": 1.560772644703736e-05,
      "longitude_deg": 38.28199289890038,
      "height_km": 476.0672521615501,
      "semi_major_axis_km": 6853.368655698206,
      "eccentricity": 0.0001122,
      "inclination_deg": 53.1566,
      "raan_deg": 278.6456,
      "arg_perigee_deg": 85.3516,
      "mean_anomaly_deg": 274.7613,
      "mean_motion_rev_day": 15.30194445
    },
    {
      "epoch": "2026-03-30T14:29:39.268608Z",
      "apogee_km": 475.9873838020767,
      "perigee_km": 474.3968631790967,
      "latitude_deg": -1.7316931036748407e-05,
      "longitude_deg": -128.88491415357416,
      "height_km": 476.02677800811375,
      "semi_major_axis_km": 6853.329123490586,
      "eccentricity": 0.00011604,
      "inclination_deg": 53.1567,
      "raan_deg": 276.522,
      "arg_perigee_deg": 85.4399,
      "mean_anomaly_deg": 274.6734,
      "mean_motion_rev_day": 15.30207685
    },
    {
      "epoch": "2026-03-30T20:45:51.699744Z",
      "apogee_km": 475.96176812767953,
      "perigee_km": 474.3539851496198,
      "latitude_deg": -3.852348198073971e-05,
      "longitude_deg": 135.5922692782027,
      "height_km": 475.9796749490417,
      "semi_major_axis_km": 6853.294876638649,
      "eccentricity": 0.0001173,
      "inclination_deg": 53.1567,
      "raan_deg": 275.3085,
      "arg_perigee_deg": 84.5697,
      "mean_anomaly_deg": 275.5437,
      "mean_motion_rev_day": 15.30219155
    },
    {
      "epoch": "2026-03-31T20:16:40.198080Z",
      "apogee_km": 476.01435664076234,
      "perigee_km": 474.4558998188022,
      "latitude_deg": 3.8714445043662786e-05,
      "longitude_deg": 137.37288780043204,
      "height_km": 476.19895047852793,
      "semi_major_axis_km": 6853.372128229782,
      "eccentricity": 0.0001137,
      "inclination_deg": 53.157,
      "raan_deg": 270.7568,
      "arg_perigee_deg": 94.8508,
      "mean_anomaly_deg": 265.2623,
      "mean_motion_rev_day": 15.30193282
    },
    {
      "epoch": "2026-04-01T19:47:27.702816Z",
      "apogee_km": 475.93393844973434,
      "perigee_km": 474.37687041544723,
      "latitude_deg": 6.226854381850704e-05,
      "longitude_deg": 139.1579175475657,
      "height_km": 476.1322347920348,
      "semi_major_axis_km": 6853.292404432591,
      "eccentricity": 0.0001136,
      "inclination_deg": 53.1577,
      "raan_deg": 266.2054,
      "arg_perigee_deg": 95.8103,
      "mean_anomaly_deg": 264.3028,
      "mean_motion_rev_day": 15.30219983
    },
    {
      "epoch": "2026-04-02T20:52:19.303104Z",
      "apogee_km": 475.98174895342527,
      "perigee_km": 474.45208035967335,
      "latitude_deg": -3.16402714548097e-05,
      "longitude_deg": 117.05890712805046,
      "height_km": 475.8810498509279,
      "semi_major_axis_km": 6853.353914656549,
      "eccentricity": 0.0001116,
      "inclination_deg": 53.1592,
      "raan_deg": 261.3515,
      "arg_perigee_deg": 72.1734,
      "mean_anomaly_deg": 287.9388,
      "mean_motion_rev_day": 15.30199382
    },
    {
      "epoch": "2026-04-02T22:26:22.460352Z",
      "apogee_km": 475.97703842116243,
      "perigee_km": 474.4350362377645,
      "latitude_deg": 1.2173759564245887e-05,
      "longitude_deg": 93.17810788644194,
      "height_km": 475.84167886937684,
      "semi_major_axis_km": 6853.343037329463,
      "eccentricity": 0.0001125,
      "inclination_deg": 53.1593,
      "raan_deg": 261.0482,
      "arg_perigee_deg": 70.0828,
      "mean_anomaly_deg": 290.0294,
      "mean_motion_rev_day": 15.30203025
    },
    {
      "epoch": "2026-04-03T20:23:07.709856Z",
      "apogee_km": 476.11511921836063,
      "perigee_km": 474.4127344281378,
      "latitude_deg": 4.879947238242344e-05,
      "longitude_deg": 118.84100935984729,
      "height_km": 476.00011801465536,
      "semi_major_axis_km": 6853.400926823249,
      "eccentricity": 0.0001242,
      "inclination_deg": 53.16,
      "raan_deg": 256.8009,
      "arg_perigee_deg": 79.0324,
      "mean_anomaly_deg": 281.0817,
      "mean_motion_rev_day": 15.30183637
    },
    {
      "epoch": "2026-04-04T05:47:27.451680Z",
      "apogee_km": 476.0956254411076,
      "perigee_km": 474.47300940999503,
      "latitude_deg": -1.649499056240635e-05,
      "longitude_deg": -24.448366623637394,
      "height_km": 476.14419653382356,
      "semi_major_axis_km": 6853.421317425551,
      "eccentricity": 0.00011838,
      "inclination_deg": 53.1602,
      "raan_deg": 254.9801,
      "arg_perigee_deg": 87.292,
      "mean_anomaly_deg": 272.8216,
      "mean_motion_rev_day": 15.30176808
    },
    {
      "epoch": "2026-04-05T14:42:34.617024Z",
      "apogee_km": 476.07750857887277,
      "perigee_km": 474.2879697285862,
      "latitude_deg": 4.2384279903321996e-05,
      "longitude_deg": -165.9511013815227,
      "height_km": 475.9079338568041,
      "semi_major_axis_km": 6853.31973915373,
      "eccentricity": 0.00013056,
      "inclination_deg": 53.1602,
      "raan_deg": 248.6091,
      "arg_perigee_deg": 78.8592,
      "mean_anomaly_deg": 281.2556,
      "mean_motion_rev_day": 15.30210828
    },
    {
      "epoch": "2026-04-05T19:24:43.890912Z",
      "apogee_km": 476.0398792357528,
      "perigee_km": 474.2799525877472,
      "latitude_deg": 6.538023212179162e-05,
      "longitude_deg": 122.40704626306926,
      "height_km": 475.8922062337331,
      "semi_major_axis_km": 6853.29691591175,
      "eccentricity": 0.0001284,
      "inclination_deg": 53.1603,
      "raan_deg": 247.699,
      "arg_perigee_deg": 79.1376,
      "mean_anomaly_deg": 280.977,
      "mean_motion_rev_day": 15.30218472
    },
    {
      "epoch": "2026-04-06T06:23:06.542016Z",
      "apogee_km": 476.10346886005755,
      "perigee_km": 474.40012760814443,
      "latitude_deg": 4.342718312016578e-06,
      "longitude_deg": -44.76142321286969,
      "height_km": 475.7808731336897,
      "semi_major_axis_km": 6853.388798234101,
      "eccentricity": 0.00012427,
      "inclination_deg": 53.1602,
      "raan_deg": 245.5756,
      "arg_perigee_deg": 64.308,
      "mean_anomaly_deg": 295.8049,
      "mean_motion_rev_day": 15.30187699
    },
    {
      "epoch": "2026-04-07T15:18:12.337056Z",
      "apogee_km": 476.0808452436431,
      "perigee_km": 474.39395566871553,
      "latitude_deg": 3.41173033608768e-05,
      "longitude_deg": 173.7415437062642,
      "height_km": 476.0963251433694,
      "semi_major_axis_km": 6853.3744004561795,
      "eccentricity": 0.00012307,
      "inclination_deg": 53.1595,
      "raan_deg": 239.2046,
      "arg_perigee_deg": 87.3399,
      "mean_anomaly_deg": 272.7743,
      "mean_motion_rev_day": 15.30192521
    },
    {
      "epoch": "2026-04-07T20:00:22.018752Z",
      "apogee_km": 476.0785887122711,
      "perigee_km": 474.3926590467954,
      "latitude_deg": 4.031723593319356e-05,
      "longitude_deg": 102.09817476166246,
      "height_km": 476.0949517163045,
      "semi_major_axis_km": 6853.3726238795325,
      "eccentricity": 0.000123,
      "inclination_deg": 53.1595,
      "raan_deg": 238.2947,
      "arg_perigee_deg": 87.3658,
      "mean_anomaly_deg": 272.7484,
      "mean_motion_rev_day": 15.30193116
    },
    {
      "epoch": "2026-04-08T14:49:01.123968Z",
      "apogee_km": 476.1282614530346,
      "perigee_km": 474.39284412471716,
      "latitude_deg": 1.7324224807860602e-05,
      "longitude_deg": 175.5223821619525,
      "height_km": 476.1581612844306,
      "semi_major_axis_km": 6853.397552788876,
      "eccentricity": 0.00012661,
      "inclination_deg": 53.159,
      "raan_deg": 234.6544,
      "arg_perigee_deg": 89.9765,
      "mean_anomaly_deg": 270.1381,
      "mean_motion_rev_day": 15.30184767
    },
    {
      "epoch": "2026-04-09T20:35:59.926272Z",
      "apogee_km": 475.8613551294593,
      "perigee_km": 474.3618643336504,
      "latitude_deg": 3.260632366701064e-05,
      "longitude_deg": 81.79023589703375,
      "height_km": 475.94543342953773,
      "semi_major_axis_km": 6853.248609731555,
      "eccentricity": 0.0001094,
      "inclination_deg": 53.1581,
      "raan_deg": 228.8904,
      "arg_perigee_deg": 85.08,
      "mean_anomaly_deg": 275.0326,
      "mean_motion_rev_day": 15.30234651
    },
    {
      "epoch": "2026-04-10T12:16:12.440640Z",
      "apogee_km": 474.53449023449775,
      "perigee_km": 472.78043085259924,
      "latitude_deg": -1.585249958784926e-05,
      "longitude_deg": -156.94099494168563,
      "height_km": 474.43601024429483,
      "semi_major_axis_km": 6851.794460543549,
      "eccentricity": 0.000128,
      "inclination_deg": 53.1578,
      "raan_deg": 225.8549,
      "arg_perigee_deg": 82.1688,
      "mean_anomaly_deg": 277.9458,
      "mean_motion_rev_day": 15.30721817
    },
    {
      "epoch": "2026-04-11T20:00:01.000224Z",
      "apogee_km": 471.5841956005852,
      "perigee_km": 470.00894087988945,
      "latitude_deg": 53.1692640608561,
      "longitude_deg": 175.4753517767313,
      "height_km": 476.61989078320494,
      "semi_major_axis_km": 6848.933568240237,
      "eccentricity": 0.000115,
      "inclination_deg": 53.1591,
      "raan_deg": 219.7024,
      "arg_perigee_deg": 69.2326,
      "mean_anomaly_deg": 24.2579,
      "mean_motion_rev_day": 15.31681022
    },
    {
      "epoch": "2026-04-13T06:00:02.000160Z",
      "apogee_km": 471.526773557016,
      "perigee_km": 469.9989209790874,
      "latitude_deg": -8.461865359348247,
      "longitude_deg": -84.71090881320922,
      "height_km": 473.2154807882135,
      "semi_major_axis_km": 6848.899847268051,
      "eccentricity": 0.00011154,
      "inclination_deg": 53.1599,
      "raan_deg": 213.1047,
      "arg_perigee_deg": 84.6558,
      "mean_anomaly_deg": 264.9245,
      "mean_motion_rev_day": 15.31692334
    },
    {
      "epoch": "2026-04-14T18:03:50.864256Z",
      "apogee_km": 471.423175473391,
      "perigee_km": 469.895893846161,
      "latitude_deg": 1.627652294458092e-05,
      "longitude_deg": 92.22349778800367,
      "height_km": 471.34063097881216,
      "semi_major_axis_km": 6848.796534659776,
      "eccentricity": 0.0001115,
      "inclination_deg": 53.1611,
      "raan_deg": 206.11,
      "arg_perigee_deg": 73.4153,
      "mean_anomaly_deg": 286.6971,
      "mean_motion_rev_day": 15.31726992
    }
  ]
}